0 ARIANE 44LP DEB
1 27660U 89062Q   13280.84275505  .00000279  00000-0  30218-2 0  7987
2 27660 006.9220 149.6256 7084365 010.8428 008.8961 02.37882349124994
0 ARIANE 44LP DEB
1 27660U 89062Q   13282.38026885  .00000370  00000-0  40221-2 0  7991
2 27660 006.9216 148.9840 7083745 012.0968 245.5757 02.37885295125036
0 ARIANE 44LP DEB
1 27660U 89062Q   13286.72408806  .00000465  00000-0  49144-2 0  8012
2 27660 006.9212 147.1782 7082592 015.6381 005.5437 02.37888940125146
0 ARIANE 44LP DEB
1 27660U 89062Q   13287.36279045  .00000330  00000-0  37124-2 0  8021
2 27660 006.9218 146.9156 7082544 016.1532 192.5183 02.37889784125158
0 ARIANE 44LP DEB
1 27660U 89062Q   13288.82979844  .00000370  00000-0  38382-2 0  8039
2 27660 006.9211 146.3077 7081982 017.3463 008.8478 02.37893015125190
0 ARIANE 44LP DEB
1 27660U 89062Q   13291.29701575  .00000382  00000-0  38669-2 0  8040
2 27660 006.9178 145.2790 7080648 019.3575 321.7875 02.37897106125245
0 ARIANE 44LP DEB
1 27660U 89062Q   13294.44233326  .00000119  00000-0  20578-2 0  8053
2 27660 006.9161 143.9731 7079727 021.9098 135.4927 02.37899405125323
